ORBCOMM FM33            
1 25983U 99065D   25339.49981274  .00002071  00000+0  68920-3 0  9999
2 25983  45.0289 264.2143 0007493 215.5279 144.5072 14.40502989360760
ORBCOMM FM36            
1 25984U 99065E   25339.75491767  .00002542  00000+0  86728-3 0  9991
2 25984  45.0396 357.5319 0000588  63.7491 296.3419 14.38679383359127
ORBCOMM FM35            
1 25985U 99065F   25339.51307110  .00002215  00000+0  77837-3 0  9992
2 25985  45.0400   5.1042 0004350 206.8612 153.2012 14.37590288359438
ORBCOMM FM34            
1 25986U 99065G   25339.75741710  .00001790  00000+0  63868-3 0  9993
2 25986  45.0400   4.4127 0002533 160.3370 199.7577 14.37545304359587
ORBCOMM FM38            
1 33060U 08031A   25339.90429025  .00003709  00000+0  48659-3 0  9990
2 33060  48.4380 216.4290 0004435  62.1533 297.9832 14.82218931940216
ORBCOMM FM41            
1 33061U 08031B   25338.16589196  .00004252  00000+0  55971-3 0  9993
2 33061  48.4425 233.1055 0003775  35.6914 121.3945 14.81764619939431
ORBCOMM FM29            
1 33062U 08031C   25339.99772574  .00003892  00000+0  51285-3 0  9993
2 33062  48.4373 231.9506 0005402  44.0750 329.6401 14.81921381939624
ORBCOMM FM39            
1 33063U 08031D   25339.52424129  .00004010  00000+0  54723-3 0  9996
2 33063  48.4395 260.4174 0006548  10.3408 349.7641 14.80361324939178
