<?xml version="1.0" encoding="UTF-8"?>
<ndm xmlns:xsi="http://www.w3.org/2001/XMLSchema-instance" xsi:noNamespaceSchemaLocation="https://sanaregistry.org/r/ndmxml_unqualified/ndmxml-2.0.0-master-2.0.xsd">
<omm id="CCSDS_OMM_VERS" version="2.0">
<header><CREATION_DATE/><ORIGINATOR/></header><body><segment><metadata><OBJECT_NAME>ORBCOMM FM33</OBJECT_NAME><OBJECT_ID>1999-065D</OBJECT_ID><CENTER_NAME>EARTH</CENTER_NAME><REF_FRAME>TEME</REF_FRAME><TIME_SYSTEM>UTC</TIME_SYSTEM><MEAN_ELEMENT_THEORY>SGP4</MEAN_ELEMENT_THEORY></metadata><data><meanElements><EPOCH>2025-12-05T11:59:43.820736</EPOCH><MEAN_MOTION>14.40502989</MEAN_MOTION><ECCENTRICITY>.00074939</ECCENTRICITY><INCLINATION>45.0289</INCLINATION><RA_OF_ASC_NODE>264.2143</RA_OF_ASC_NODE><ARG_OF_PERICENTER>215.5279</ARG_OF_PERICENTER><MEAN_ANOMALY>144.5072</MEAN_ANOMALY></meanElements><tleParameters><EPHEMERIS_TYPE>0</EPHEMERIS_TYPE><CLASSIFICATION_TYPE>U</CLASSIFICATION_TYPE><NORAD_CAT_ID>25983</NORAD_CAT_ID><ELEMENT_SET_NO>999</ELEMENT_SET_NO><REV_AT_EPOCH>36076</REV_AT_EPOCH><BSTAR>.68919705E-3</BSTAR><MEAN_MOTION_DOT>.2071E-4</MEAN_MOTION_DOT><MEAN_MOTION_DDOT>0</MEAN_MOTION_DDOT></tleParameters></data></segment></body></omm>
<omm id="CCSDS_OMM_VERS" version="2.0">
<header><CREATION_DATE/><ORIGINATOR/></header><body><segment><metadata><OBJECT_NAME>ORBCOMM FM36</OBJECT_NAME><OBJECT_ID>1999-065E</OBJECT_ID><CENTER_NAME>EARTH</CENTER_NAME><REF_FRAME>TEME</REF_FRAME><TIME_SYSTEM>UTC</TIME_SYSTEM><MEAN_ELEMENT_THEORY>SGP4</MEAN_ELEMENT_THEORY></metadata><data><meanElements><EPOCH>2025-12-05T18:07:04.886688</EPOCH><MEAN_MOTION>14.38679383</MEAN_MOTION><ECCENTRICITY>.00005887</ECCENTRICITY><INCLINATION>45.0396</INCLINATION><RA_OF_ASC_NODE>357.5319</RA_OF_ASC_NODE><ARG_OF_PERICENTER>63.7491</ARG_OF_PERICENTER><MEAN_ANOMALY>296.3419</MEAN_ANOMALY></meanElements><tleParameters><EPHEMERIS_TYPE>0</EPHEMERIS_TYPE><CLASSIFICATION_TYPE>U</CLASSIFICATION_TYPE><NORAD_CAT_ID>25984</NORAD_CAT_ID><ELEMENT_SET_NO>999</ELEMENT_SET_NO><REV_AT_EPOCH>35912</REV_AT_EPOCH><BSTAR>.86727656E-3</BSTAR><MEAN_MOTION_DOT>.2542E-4</MEAN_MOTION_DOT><MEAN_MOTION_DDOT>0</MEAN_MOTION_DDOT></tleParameters></data></segment></body></omm>
<omm id="CCSDS_OMM_VERS" version="2.0">
<header><CREATION_DATE/><ORIGINATOR/></header><body><segment><metadata><OBJECT_NAME>ORBCOMM FM35</OBJECT_NAME><OBJECT_ID>1999-065F</OBJECT_ID><CENTER_NAME>EARTH</CENTER_NAME><REF_FRAME>TEME</REF_FRAME><TIME_SYSTEM>UTC</TIME_SYSTEM><MEAN_ELEMENT_THEORY>SGP4</MEAN_ELEMENT_THEORY></metadata><data><meanElements><EPOCH>2025-12-05T12:18:49.343040</EPOCH><MEAN_MOTION>14.37590288</MEAN_MOTION><ECCENTRICITY>.00043503</ECCENTRICITY><INCLINATION>45.0400</INCLINATION><RA_OF_ASC_NODE>5.1042</RA_OF_ASC_NODE><ARG_OF_PERICENTER>206.8612</ARG_OF_PERICENTER><MEAN_ANOMALY>153.2012</MEAN_ANOMALY></meanElements><tleParameters><EPHEMERIS_TYPE>0</EPHEMERIS_TYPE><CLASSIFICATION_TYPE>U</CLASSIFICATION_TYPE><NORAD_CAT_ID>25985</NORAD_CAT_ID><ELEMENT_SET_NO>999</ELEMENT_SET_NO><REV_AT_EPOCH>35943</REV_AT_EPOCH><BSTAR>.7783726E-3</BSTAR><MEAN_MOTION_DOT>.2215E-4</MEAN_MOTION_DOT><MEAN_MOTION_DDOT>0</MEAN_MOTION_DDOT></tleParameters></data></segment></body></omm>
<omm id="CCSDS_OMM_VERS" version="2.0">
<header><CREATION_DATE/><ORIGINATOR/></header><body><segment><metadata><OBJECT_NAME>ORBCOMM FM34</OBJECT_NAME><OBJECT_ID>1999-065G</OBJECT_ID><CENTER_NAME>EARTH</CENTER_NAME><REF_FRAME>TEME</REF_FRAME><TIME_SYSTEM>UTC</TIME_SYSTEM><MEAN_ELEMENT_THEORY>SGP4</MEAN_ELEMENT_THEORY></metadata><data><meanElements><EPOCH>2025-12-05T18:10:40.837440</EPOCH><MEAN_MOTION>14.37545304</MEAN_MOTION><ECCENTRICITY>.00025336</ECCENTRICITY><INCLINATION>45.0400</INCLINATION><RA_OF_ASC_NODE>4.4127</RA_OF_ASC_NODE><ARG_OF_PERICENTER>160.3370</ARG_OF_PERICENTER><MEAN_ANOMALY>199.7577</MEAN_ANOMALY></meanElements><tleParameters><EPHEMERIS_TYPE>0</EPHEMERIS_TYPE><CLASSIFICATION_TYPE>U</CLASSIFICATION_TYPE><NORAD_CAT_ID>25986</NORAD_CAT_ID><ELEMENT_SET_NO>999</ELEMENT_SET_NO><REV_AT_EPOCH>35958</REV_AT_EPOCH><BSTAR>.63868244E-3</BSTAR><MEAN_MOTION_DOT>.179E-4</MEAN_MOTION_DOT><MEAN_MOTION_DDOT>0</MEAN_MOTION_DDOT></tleParameters></data></segment></body></omm>
<omm id="CCSDS_OMM_VERS" version="2.0">
<header><CREATION_DATE/><ORIGINATOR/></header><body><segment><metadata><OBJECT_NAME>ORBCOMM FM38</OBJECT_NAME><OBJECT_ID>2008-031A</OBJECT_ID><CENTER_NAME>EARTH</CENTER_NAME><REF_FRAME>TEME</REF_FRAME><TIME_SYSTEM>UTC</TIME_SYSTEM><MEAN_ELEMENT_THEORY>SGP4</MEAN_ELEMENT_THEORY></metadata><data><meanElements><EPOCH>2025-12-05T21:42:10.677600</EPOCH><MEAN_MOTION>14.82218931</MEAN_MOTION><ECCENTRICITY>.00044351</ECCENTRICITY><INCLINATION>48.4380</INCLINATION><RA_OF_ASC_NODE>216.4290</RA_OF_ASC_NODE><ARG_OF_PERICENTER>62.1533</ARG_OF_PERICENTER><MEAN_ANOMALY>297.9832</MEAN_ANOMALY></meanElements><tleParameters><EPHEMERIS_TYPE>0</EPHEMERIS_TYPE><CLASSIFICATION_TYPE>U</CLASSIFICATION_TYPE><NORAD_CAT_ID>33060</NORAD_CAT_ID><ELEMENT_SET_NO>999</ELEMENT_SET_NO><REV_AT_EPOCH>94021</REV_AT_EPOCH><BSTAR>.48659475E-3</BSTAR><MEAN_MOTION_DOT>.3709E-4</MEAN_MOTION_DOT><MEAN_MOTION_DDOT>0</MEAN_MOTION_DDOT></tleParameters></data></segment></body></omm>
<omm id="CCSDS_OMM_VERS" version="2.0">
<header><CREATION_DATE/><ORIGINATOR/></header><body><segment><metadata><OBJECT_NAME>ORBCOMM FM41</OBJECT_NAME><OBJECT_ID>2008-031B</OBJECT_ID><CENTER_NAME>EARTH</CENTER_NAME><REF_FRAME>TEME</REF_FRAME><TIME_SYSTEM>UTC</TIME_SYSTEM><MEAN_ELEMENT_THEORY>SGP4</MEAN_ELEMENT_THEORY></metadata><data><meanElements><EPOCH>2025-12-04T03:58:53.065344</EPOCH><MEAN_MOTION>14.81764619</MEAN_MOTION><ECCENTRICITY>.00037757</ECCENTRICITY><INCLINATION>48.4425</INCLINATION><RA_OF_ASC_NODE>233.1055</RA_OF_ASC_NODE><ARG_OF_PERICENTER>35.6914</ARG_OF_PERICENTER><MEAN_ANOMALY>121.3945</MEAN_ANOMALY></meanElements><tleParameters><EPHEMERIS_TYPE>0</EPHEMERIS_TYPE><CLASSIFICATION_TYPE>U</CLASSIFICATION_TYPE><NORAD_CAT_ID>33061</NORAD_CAT_ID><ELEMENT_SET_NO>999</ELEMENT_SET_NO><REV_AT_EPOCH>93943</REV_AT_EPOCH><BSTAR>.559713E-3</BSTAR><MEAN_MOTION_DOT>.4252E-4</MEAN_MOTION_DOT><MEAN_MOTION_DDOT>0</MEAN_MOTION_DDOT></tleParameters></data></segment></body></omm>
<omm id="CCSDS_OMM_VERS" version="2.0">
<header><CREATION_DATE/><ORIGINATOR/></header><body><segment><metadata><OBJECT_NAME>ORBCOMM FM29</OBJECT_NAME><OBJECT_ID>2008-031C</OBJECT_ID><CENTER_NAME>EARTH</CENTER_NAME><REF_FRAME>TEME</REF_FRAME><TIME_SYSTEM>UTC</TIME_SYSTEM><MEAN_ELEMENT_THEORY>SGP4</MEAN_ELEMENT_THEORY></metadata><data><meanElements><EPOCH>2025-12-05T23:56:43.503936</EPOCH><MEAN_MOTION>14.81921381</MEAN_MOTION><ECCENTRICITY>.00054022</ECCENTRICITY><INCLINATION>48.4373</INCLINATION><RA_OF_ASC_NODE>231.9506</RA_OF_ASC_NODE><ARG_OF_PERICENTER>44.0750</ARG_OF_PERICENTER><MEAN_ANOMALY>329.6401</MEAN_ANOMALY></meanElements><tleParameters><EPHEMERIS_TYPE>0</EPHEMERIS_TYPE><CLASSIFICATION_TYPE>U</CLASSIFICATION_TYPE><NORAD_CAT_ID>33062</NORAD_CAT_ID><ELEMENT_SET_NO>999</ELEMENT_SET_NO><REV_AT_EPOCH>93962</REV_AT_EPOCH><BSTAR>.51284807E-3</BSTAR><MEAN_MOTION_DOT>.3892E-4</MEAN_MOTION_DOT><MEAN_MOTION_DDOT>0</MEAN_MOTION_DDOT></tleParameters></data></segment></body></omm>
<omm id="CCSDS_OMM_VERS" version="2.0">
<header><CREATION_DATE/><ORIGINATOR/></header><body><segment><metadata><OBJECT_NAME>ORBCOMM FM39</OBJECT_NAME><OBJECT_ID>2008-031D</OBJECT_ID><CENTER_NAME>EARTH</CENTER_NAME><REF_FRAME>TEME</REF_FRAME><TIME_SYSTEM>UTC</TIME_SYSTEM><MEAN_ELEMENT_THEORY>SGP4</MEAN_ELEMENT_THEORY></metadata><data><meanElements><EPOCH>2025-12-05T12:34:54.447456</EPOCH><MEAN_MOTION>14.80361324</MEAN_MOTION><ECCENTRICITY>.00065482</ECCENTRICITY><INCLINATION>48.4395</INCLINATION><RA_OF_ASC_NODE>260.4174</RA_OF_ASC_NODE><ARG_OF_PERICENTER>10.3408</ARG_OF_PERICENTER><MEAN_ANOMALY>349.7641</MEAN_ANOMALY></meanElements><tleParameters><EPHEMERIS_TYPE>0</EPHEMERIS_TYPE><CLASSIFICATION_TYPE>U</CLASSIFICATION_TYPE><NORAD_CAT_ID>33063</NORAD_CAT_ID><ELEMENT_SET_NO>999</ELEMENT_SET_NO><REV_AT_EPOCH>93917</REV_AT_EPOCH><BSTAR>.54723237E-3</BSTAR><MEAN_MOTION_DOT>.401E-4</MEAN_MOTION_DOT><MEAN_MOTION_DDOT>0</MEAN_MOTION_DDOT></tleParameters></data></segment></body></omm>

</ndm>
